{
  "type": "FeatureCollection",
  "features": [
    {
      "type": "Feature",
      "properties": {
        "norad_id": 38867,
        "name": "INTELSAT 23 (IS-23)",
        "group": "intelsat",
        "lat": -0.030318179719173458,
        "lon": -102.36570150094084,
        "alt_km": 35784.45192942545,
        "timestamp": "2025-12-19T14:48:35.912296+00:00",
        "meta_object_name": "INTELSAT 23 (IS-23)",
        "meta_object_id": "2012-057A",
        "meta_epoch": "2025-12-19T06:09:52.570080",
        "meta_mean_motion": 1.00270551,
        "meta_eccentricity": 5.697e-05,
        "meta_inclination": 0.0159,
        "meta_ra_of_asc_node": 39.0797,
        "meta_arg_of_pericenter": 251.6199,
        "meta_mean_anomaly": 196.9149,
        "meta_ephemeris_type": 0,
        "meta_classification_type": "U",
        "meta_norad_cat_id": 38867,
        "meta_element_set_no": 999,
        "meta_rev_at_epoch": 4815,
        "meta_bstar": 0,
        "meta_mean_motion_dot": -2.6e-06,
        "meta_mean_motion_ddot": 0,
        "tle_line1": "1 38867U 12057A   25353.25685845 -.00000260  00000+0  00000+0 0  9995",
        "tle_line2": "2 38867   0.0159  39.0797 0000569 251.6199 196.9149  1.00270551 48155"
      },
      "geometry": {
        "type": "Point",
        "coordinates": [
          -102.36570150094084,
          -0.030318179719173458
        ]
      }
    },
    {
      "type": "Feature",
      "properties": {
        "norad_id": 39360,
        "name": "FM-6",
        "group": "intelsat",
        "lat": 0.003540104132632155,
        "lon": -165.5416108227641,
        "alt_km": 35774.06667865787,
        "timestamp": "2025-12-19T14:48:35.912308+00:00",
        "meta_object_name": "FM-6",
        "meta_object_id": "2013-058A",
        "meta_epoch": "2025-12-18T14:27:20.008224",
        "meta_mean_motion": 1.00273107,
        "meta_eccentricity": 0.00028667,
        "meta_inclination": 0.0123,
        "meta_ra_of_asc_node": 67.2703,
        "meta_arg_of_pericenter": 112.0416,
        "meta_mean_anomaly": 8.8268,
        "meta_ephemeris_type": 0,
        "meta_classification_type": "U",
        "meta_norad_cat_id": 39360,
        "meta_element_set_no": 999,
        "meta_rev_at_epoch": 4426,
        "meta_bstar": 0,
        "meta_mean_motion_dot": 8e-08,
        "meta_mean_motion_ddot": 0,
        "tle_line1": "1 39360U 13058A   25352.60231491  .00000008  00000+0  00000+0 0  9997",
        "tle_line2": "2 39360   0.0123  67.2703 0002866 112.0416   8.8268  1.00273107 44260"
      },
      "geometry": {
        "type": "Point",
        "coordinates": [
          -165.5416108227641,
          0.003540104132632155
        ]
      }
    },
    {
      "type": "Feature",
      "properties": {
        "norad_id": 40271,
        "name": "INTELSAT 30 (IS-30)",
        "group": "intelsat",
        "lat": -0.015520931716429232,
        "lon": -144.43728437987454,
        "alt_km": 35790.25423938682,
        "timestamp": "2025-12-19T14:48:35.912320+00:00",
        "meta_object_name": "INTELSAT 30 (IS-30)",
        "meta_object_id": "2014-062A",
        "meta_epoch": "2025-12-18T23:06:58.184352",
        "meta_mean_motion": 1.00271369,
        "meta_eccentricity": 0.00015892,
        "meta_inclination": 0.0165,
        "meta_ra_of_asc_node": 27.1384,
        "meta_arg_of_pericenter": 61.714,
        "meta_mean_anomaly": 250.6555,
        "meta_ephemeris_type": 0,
        "meta_classification_type": "U",
        "meta_norad_cat_id": 40271,
        "meta_element_set_no": 999,
        "meta_rev_at_epoch": 498,
        "meta_bstar": 0,
        "meta_mean_motion_dot": -1.26e-06,
        "meta_mean_motion_ddot": 0,
        "tle_line1": "1 40271U 14062A   25352.96317343 -.00000126  00000+0  00000+0 0  9998",
        "tle_line2": "2 40271   0.0165  27.1384 0001589  61.7140 250.6555  1.00271369  4983"
      },
      "geometry": {
        "type": "Point",
        "coordinates": [
          -144.43728437987454,
          -0.015520931716429232
        ]
      }
    },
    {
      "type": "Feature",
      "properties": {
        "norad_id": 40333,
        "name": "DIRECTV 14",
        "group": "intelsat",
        "lat": -0.03381736229164066,
        "lon": -148.60144707414187,
        "alt_km": 35784.35608765473,
        "timestamp": "2025-12-19T14:48:35.912332+00:00",
        "meta_object_name": "DIRECTV 14",
        "meta_object_id": "2014-078B",
        "meta_epoch": "2025-12-18T20:48:57.002688",
        "meta_mean_motion": 1.00273138,
        "meta_eccentricity": 5.178e-05,
        "meta_inclination": 0.0185,
        "meta_ra_of_asc_node": 335.9821,
        "meta_arg_of_pericenter": 184.6826,
        "meta_mean_anomaly": 140.0852,
        "meta_ephemeris_type": 0,
        "meta_classification_type": "U",
        "meta_norad_cat_id": 40333,
        "meta_element_set_no": 999,
        "meta_rev_at_epoch": 4023,
        "meta_bstar": 0,
        "meta_mean_motion_dot": -1.01e-06,
        "meta_mean_motion_ddot": 0,
        "tle_line1": "1 40333U 14078B   25352.86732642 -.00000101  00000+0  00000+0 0  9999",
        "tle_line2": "2 40333   0.0185 335.9821 0000517 184.6826 140.0852  1.00273138 40232"
      },
      "geometry": {
        "type": "Point",
        "coordinates": [
          -148.60144707414187,
          -0.03381736229164066
        ]
      }
    },
    {
      "type": "Feature",
      "properties": {
        "norad_id": 40663,
        "name": "DIRECTV 15",
        "group": "intelsat",
        "lat": -0.024387847871521165,
        "lon": -152.2772790870027,
        "alt_km": 35786.711080768655,
        "timestamp": "2025-12-19T14:48:35.912343+00:00",
        "meta_object_name": "DIRECTV 15",
        "meta_object_id": "2015-026A",
        "meta_epoch": "2025-12-19T05:58:50.122272",
        "meta_mean_motion": 1.00270166,
        "meta_eccentricity": 1.768e-05,
        "meta_inclination": 0.0257,
        "meta_ra_of_asc_node": 4.7351,
        "meta_arg_of_pericenter": 100.2973,
        "meta_mean_anomaly": 329.8977,
        "meta_ephemeris_type": 0,
        "meta_classification_type": "U",
        "meta_norad_cat_id": 40663,
        "meta_element_set_no": 999,
        "meta_rev_at_epoch": 3865,
        "meta_bstar": 0,
        "meta_mean_motion_dot": 0,
        "meta_mean_motion_ddot": 0,
        "tle_line1": "1 40663U 15026A   25353.24919123  .00000000  00000+0  00000+0 0  9990",
        "tle_line2": "2 40663   0.0257   4.7351 0000176 100.2973 329.8977  1.00270166 38651"
      },
      "geometry": {
        "type": "Point",
        "coordinates": [
          -152.2772790870027,
          -0.024387847871521165
        ]
      }
    },
    {
      "type": "Feature",
      "properties": {
        "norad_id": 40664,
        "name": "SKY MEXICO-1",
        "group": "intelsat",
        "lat": -0.03419387622535231,
        "lon": -128.1800739215763,
        "alt_km": 35779.97349968173,
        "timestamp": "2025-12-19T14:48:35.912354+00:00",
        "meta_object_name": "SKY MEXICO-1",
        "meta_object_id": "2015-026B",
        "meta_epoch": "2025-12-19T06:13:04.228608",
        "meta_mean_motion": 1.00272351,
        "meta_eccentricity": 0.00023099,
        "meta_inclination": 0.012,
        "meta_ra_of_asc_node": 319.4743,
        "meta_arg_of_pericenter": 324.7762,
        "meta_mean_anomaly": 178.3656,
        "meta_ephemeris_type": 0,
        "meta_classification_type": "U",
        "meta_norad_cat_id": 40664,
        "meta_element_set_no": 999,
        "meta_rev_at_epoch": 3865,
        "meta_bstar": 0,
        "meta_mean_motion_dot": -2.1e-06,
        "meta_mean_motion_ddot": 0,
        "tle_line1": "1 40664U 15026B   25353.25907672 -.00000210  00000+0  00000+0 0  9992",
        "tle_line2": "2 40664   0.0120 319.4743 0002309 324.7762 178.3656  1.00272351 38650"
      },
      "geometry": {
        "type": "Point",
        "coordinates": [
          -128.1800739215763,
          -0.03419387622535231
        ]
      }
    },
    {
      "type": "Feature",
      "properties": {
        "norad_id": 40874,
        "name": "INTELSAT 34 (IS-34)",
        "group": "intelsat",
        "lat": -0.042952674356324154,
        "lon": -104.90831507859679,
        "alt_km": 35787.89526591678,
        "timestamp": "2025-12-19T14:48:35.912366+00:00",
        "meta_object_name": "INTELSAT 34 (IS-34)",
        "meta_object_id": "2015-039A",
        "meta_epoch": "2025-12-18T19:52:46.782336",
        "meta_mean_motion": 1.00269757,
        "meta_eccentricity": 5.944e-05,
        "meta_inclination": 0.0159,
        "meta_ra_of_asc_node": 344.6956,
        "meta_arg_of_pericenter": 153.3113,
        "meta_mean_anomaly": 192.3634,
        "meta_ephemeris_type": 0,
        "meta_classification_type": "U",
        "meta_norad_cat_id": 40874,
        "meta_element_set_no": 999,
        "meta_rev_at_epoch": 3781,
        "meta_bstar": 0,
        "meta_mean_motion_dot": -2.6e-06,
        "meta_mean_motion_ddot": 0,
        "tle_line1": "1 40874U 15039A   25352.82831924 -.00000260  00000+0  00000+0 0  9992",
        "tle_line2": "2 40874   0.0159 344.6956 0000594 153.3113 192.3634  1.00269757 37816"
      },
      "geometry": {
        "type": "Point",
        "coordinates": [
          -104.90831507859679,
          -0.042952674356324154
        ]
      }
    }
  ]
}